LEMUR-2-TEODOR          
1 66768U 25276DG  26117.77954718  .00006135  00000+0  28392-3 0  9991
2 66768  97.4166 192.3414 0001221  74.5044 285.6326 15.20488839 22781
LEMUR-2-LAILA           
1 66776U 25276DQ  26117.76065584  .00006717  00000+0  30861-3 0  9993
2 66776  97.4192 192.4116 0001777  57.1187 303.0219 15.20702169 22781
LEMUR-2-CELIJO-SB-PK    
1 66781U 25276DW  26117.72602661  .00006275  00000+0  51775-3 0  9994
2 66781  97.5248 190.1772 0008560 302.3566  57.6828 14.99319188 15067
LEMUR-2-FINNIAN         
1 66782U 25276DX  26117.78393917  .00006060  00000+0  49454-3 0  9995
2 66782  97.5265 190.4208 0005313 280.3789  79.6836 14.99774905 12443
LEMUR-2-STARLIGHT       
1 66783U 25276DY  26117.69717657  .00005750  00000+0  48392-3 0  9992
2 66783  97.5291 190.0746 0012834 306.5072  53.4969 14.98556921 22632
LEMUR-2-TARTIFLETTE     
1 66784U 25276DZ  26117.76090119  .00007291  00000+0  61476-3 0  9998
2 66784  97.5297 190.1443 0011690 314.2338  45.7924 14.98404215 22648
LEMUR-2-VUKASIN         
1 66785U 25276EA  26117.73201427  .00007625  00000+0  62186-3 0  9992
2 66785  97.5243 190.3074 0006019 299.4648  60.5975 14.99714638 22587
LEMUR-2-HOTSPUR-TOM     
1 66786U 25276EB  26117.75071111  .00007071  00000+0  59664-3 0  9992
2 66786  97.5270 190.1307 0011963 307.2115  52.8016 14.98381556 22573
LEMUR-2-MYRA            
1 66787U 25276EC  26117.09261700  .00006029  00000+0  49294-3 0  9995
2 66787  97.5312 189.6492 0010975 322.5053  37.5404 14.99669939 22556
LEMUR-2 FIKRETDENGIZ    
1 67363U 26004A   26117.70448828  .00004910  00000+0  54135-3 0  9999
2 67363  97.8017 117.0552 0007426 315.4151  44.6467 14.87934493 15772
LEMUR-2-CALLUM-K-J      
1 67364U 26004B   26117.57678763  .00001947  00000+0  22056-3 0  9992
2 67364  97.8064 116.9584 0007211 302.5129  57.5390 14.87524670 15761
LEMUR-2-MARIO-SOUSA     
1 67365U 26004C   26117.55938249  .00005172  00000+0  56774-3 0  9997
2 67365  97.7997 116.9107 0007014 317.8582  42.2095 14.88093452 15763
LEMUR-2-SONNENBLUME     
1 67367U 26004E   26117.75542028  .00003753  00000+0  41409-3 0  9999
2 67367  97.7988 117.1023 0006798 318.9689  41.1015 14.88052887 15793
LEMUR-2-WOBLER          
1 67368U 26004F   26117.75384345  .00005013  00000+0  54994-3 0  9990
2 67368  97.8045 117.1759 0006480 306.9308  53.1314 14.88136839 15793
LEMUR-2-GRAM-E-SUE      
1 67370U 26004H   26117.74538973  .00005440  00000+0  59491-3 0  9991
2 67370  97.7976 117.1024 0005864 324.0014  36.0808 14.88228814 15796
LEMUR-2-KATIE           
1 67387U 26004AA  26117.58255237  .00004619  00000+0  48812-3 0  9992
2 67387  97.8038 117.2417 0001331 247.3263 112.7813 14.89707692 15772
LEMUR-2-HCS-BAZUS       
1 67388U 26004AB  26117.71452301  .00005025  00000+0  53185-3 0  9990
2 67388  97.8029 117.3634 0001022 220.7462 139.3679 14.89606063 15795
